Name,BusinessName,FeatureID,Address,City,CityEntity,State,ZIP,Phone,MatchStatus,CensusCode,GeoLocation
UPS Drop Box,Lipsco Ltd,8083,5022 New Utrecht Ave,Brooklyn,"Entity[""City"", {""Brooklyn"", ""Ohio"", ""UnitedStates""}]","Entity[""AdministrativeDivision"", {""NewYork"", ""UnitedStates""}]","Entity[""ZIPCode"", ""11219""]",718-701-5294,OK,3.60E+14,"GeoPosition[{40.635517, -73.994919}]"
Authorized Shipping Outlet,E-Z Shipping,8081,1080 McDonald Ave,Brooklyn,"Entity[""City"", {""Brooklyn"", ""Ohio"", ""UnitedStates""}]","Entity[""AdministrativeDivision"", {""NewYork"", ""UnitedStates""}]","Entity[""ZIPCode"", ""11230""]",718-951-3920,OK,3.60E+14,"GeoPosition[{40.6269, -73.976468}]"
Authorized Shipping Outlet,Plaza Box Store,10141,2366 Flatbush Ave,Brooklyn,"Entity[""City"", {""Brooklyn"", ""Ohio"", ""UnitedStates""}]","Entity[""AdministrativeDivision"", {""NewYork"", ""UnitedStates""}]","Entity[""ZIPCode"", ""11234""]",718-951-0909,OK,3.60E+14,"GeoPosition[{40.612409, -73.925681}]"
Authorized Shipping Outlet,Europe Transit Inc,10150,1292 Brighton Beach Ave,Brooklyn,"Entity[""City"", {""Brooklyn"", ""Ohio"", ""UnitedStates""}]","Entity[""AdministrativeDivision"", {""NewYork"", ""UnitedStates""}]","Entity[""ZIPCode"", ""11235""]",718-946-7310,OK,3.60E+14,"GeoPosition[{40.576311, -73.968805}]"
Authorized Shipping Outlet,American Mail Depot,10155,4809 Ave N,Brooklyn,"Entity[""City"", {""Brooklyn"", ""Ohio"", ""UnitedStates""}]","Entity[""AdministrativeDivision"", {""NewYork"", ""UnitedStates""}]","Entity[""ZIPCode"", ""11234""]",718-951-6255,OK,3.60E+14,"GeoPosition[{40.618862, -73.92868}]"
Authorized Shipping Outlet,Sandbox Pack & Ship,8585,1446 Myrtle Ave,Brooklyn,"Entity[""City"", {""Brooklyn"", ""Ohio"", ""UnitedStates""}]","Entity[""AdministrativeDivision"", {""NewYork"", ""UnitedStates""}]","Entity[""ZIPCode"", ""11237""]",718-576-2035,OK,3.60E+14,"GeoPosition[{40.698931, -73.916864}]"
UPS Alliance Location,Staples Aso 01257,8755,409 Gateway Dr,Brooklyn,"Entity[""City"", {""Brooklyn"", ""Ohio"", ""UnitedStates""}]","Entity[""AdministrativeDivision"", {""NewYork"", ""UnitedStates""}]","Entity[""ZIPCode"", ""11239""]",718-348-9477,OK,3.60E+14,"GeoPosition[{40.650878, -73.869243}]"
Authorized Shipping Outlet,Packaging Depo,8763,2058 Rockaway Pkwy,Brooklyn,"Entity[""City"", {""Brooklyn"", ""Ohio"", ""UnitedStates""}]","Entity[""AdministrativeDivision"", {""NewYork"", ""UnitedStates""}]","Entity[""ZIPCode"", ""11236""]",718-444-9756,OK,3.60E+14,"GeoPosition[{40.632703, -73.88865}]"
UPS Drop Box,Self-Serve Drop Box,5238,50 Washington St,Brooklyn,"Entity[""City"", {""Brooklyn"", ""Ohio"", ""UnitedStates""}]","Entity[""AdministrativeDivision"", {""NewYork"", ""UnitedStates""}]","Entity[""ZIPCode"", ""11201""]","Missing[""NotAvailable""]",OK,3.60E+14,"GeoPosition[{40.702832, -73.989645}]"
The UPS Store,"Missing[""NotAvailable""]",5321,9322 3rd Ave,Brooklyn,"Entity[""City"", {""Brooklyn"", ""Ohio"", ""UnitedStates""}]","Entity[""AdministrativeDivision"", {""NewYork"", ""UnitedStates""}]","Entity[""ZIPCode"", ""11209""]",718-759-9100,OK,3.60E+14,"GeoPosition[{40.618445, -74.033144}]"
The UPS Store,"Missing[""NotAvailable""]",5322,7103 3rd Ave,Brooklyn,"Entity[""City"", {""Brooklyn"", ""Ohio"", ""UnitedStates""}]","Entity[""AdministrativeDivision"", {""NewYork"", ""UnitedStates""}]","Entity[""ZIPCode"", ""11209""]",718-238-1805,OK,3.60E+14,"GeoPosition[{40.633878, -74.026764}]"
The UPS Store,"Missing[""NotAvailable""]",5323,8225 5th Ave,Brooklyn,"Entity[""City"", {""Brooklyn"", ""Ohio"", ""UnitedStates""}]","Entity[""AdministrativeDivision"", {""NewYork"", ""UnitedStates""}]","Entity[""ZIPCode"", ""11209""]",718-680-8225,OK,3.60E+14,"GeoPosition[{40.624106, -74.024797}]"
UPS Drop Box,Ny Design Architects,5345,9710 3rd Ave,Brooklyn,"Entity[""City"", {""Brooklyn"", ""Ohio"", ""UnitedStates""}]","Entity[""AdministrativeDivision"", {""NewYork"", ""UnitedStates""}]","Entity[""ZIPCode"", ""11209""]",718-980-0700,OK,3.60E+14,"GeoPosition[{40.615704, -74.034247}]"
UPS Drop Box,Hamilton Financial C,5434,9201 4th Ave,Brooklyn,"Entity[""City"", {""Brooklyn"", ""Ohio"", ""UnitedStates""}]","Entity[""AdministrativeDivision"", {""NewYork"", ""UnitedStates""}]","Entity[""ZIPCode"", ""11209""]",718-390-0300,OK,3.60E+14,"GeoPosition[{40.618255, -74.030171}]"
UPS Drop Box,Self-Serve Drop Box,5435,7620 3rd Ave,Brooklyn,"Entity[""City"", {""Brooklyn"", ""Ohio"", ""UnitedStates""}]","Entity[""AdministrativeDivision"", {""NewYork"", ""UnitedStates""}]","Entity[""ZIPCode"", ""11209""]",718-390-0300,OK,3.60E+14,"GeoPosition[{40.630566, -74.028199}]"
UPS Drop Box,Beltway Buick,5436,1819 Cropsey Ave,Brooklyn,"Entity[""City"", {""Brooklyn"", ""Ohio"", ""UnitedStates""}]","Entity[""AdministrativeDivision"", {""NewYork"", ""UnitedStates""}]","Entity[""ZIPCode"", ""11214""]",718-390-0300,OK,3.60E+14,"GeoPosition[{40.60227, -74.006664}]"
UPS Drop Box,Brooklyn Army Termin,5437,140 58th St,Brooklyn,"Entity[""City"", {""Brooklyn"", ""Ohio"", ""UnitedStates""}]","Entity[""AdministrativeDivision"", {""NewYork"", ""UnitedStates""}]","Entity[""ZIPCode"", ""11220""]",718-390-0300,OK,3.60E+14,"GeoPosition[{40.645314, -74.022907}]"
UPS Drop Box,Self-Serve Drop Box,5438,1001 60th St,Brooklyn,"Entity[""City"", {""Brooklyn"", ""Ohio"", ""UnitedStates""}]","Entity[""AdministrativeDivision"", {""NewYork"", ""UnitedStates""}]","Entity[""ZIPCode"", ""11219""]",718-390-0300,OK,3.60E+14,"GeoPosition[{40.632718, -74.004902}]"
UPS Drop Box,American Stock Trans,5439,6201 15th Ave,Brooklyn,"Entity[""City"", {""Brooklyn"", ""Ohio"", ""UnitedStates""}]","Entity[""AdministrativeDivision"", {""NewYork"", ""UnitedStates""}]","Entity[""ZIPCode"", ""11219""]",718-390-0300,OK,3.60E+14,"GeoPosition[{40.624961, -73.99536}]"
UPS Drop Box,Held Esq,5440,6920 Bay Pkwy,Brooklyn,"Entity[""City"", {""Brooklyn"", ""Ohio"", ""UnitedStates""}]","Entity[""AdministrativeDivision"", {""NewYork"", ""UnitedStates""}]","Entity[""ZIPCode"", ""11204""]",718-390-0300,OK,3.60E+14,"GeoPosition[{40.611214, -73.984214}]"
UPS Drop Box,Self Serve Drop Box,8112,777 Kent Ave,Brooklyn,"Entity[""City"", {""Brooklyn"", ""Ohio"", ""UnitedStates""}]","Entity[""AdministrativeDivision"", {""NewYork"", ""UnitedStates""}]","Entity[""ZIPCode"", ""11205""]",718-701-5294,OK,3.60E+14,"GeoPosition[{40.697644, -73.959981}]"
UPS Drop Box,Self-Serve Drop Box,8114,395 Flatbush Ave Ext,Brooklyn,"Entity[""City"", {""Brooklyn"", ""Ohio"", ""UnitedStates""}]","Entity[""AdministrativeDivision"", {""NewYork"", ""UnitedStates""}]","Entity[""ZIPCode"", ""11201""]",718-701-5294,OK,3.60E+14,"GeoPosition[{40.689888, -73.981331}]"
UPS Drop Box,Self Serve Drop Box,8113,178 Wallabout St,Brooklyn,"Entity[""City"", {""Brooklyn"", ""Ohio"", ""UnitedStates""}]","Entity[""AdministrativeDivision"", {""NewYork"", ""UnitedStates""}]","Entity[""ZIPCode"", ""11206""]",718-701-5294,OK,3.60E+14,"GeoPosition[{40.699815, -73.956017}]"
UPS Drop Box,Paz Bldg,8115,185 Marcy Ave,Brooklyn,"Entity[""City"", {""Brooklyn"", ""Ohio"", ""UnitedStates""}]","Entity[""AdministrativeDivision"", {""NewYork"", ""UnitedStates""}]","Entity[""ZIPCode"", ""11211""]",718-701-5294,OK,3.60E+14,"GeoPosition[{40.707687, -73.958315}]"
Authorized Shipping Outlet,Lee Avenue Shipping,8116,199 Lee Ave,Brooklyn,"Entity[""City"", {""Brooklyn"", ""Ohio"", ""UnitedStates""}]","Entity[""AdministrativeDivision"", {""NewYork"", ""UnitedStates""}]","Entity[""ZIPCode"", ""11211""]",718-486-6132,OK,3.60E+14,"GeoPosition[{40.702021, -73.955757}]"
UPS Drop Box,Self Serve Drop Box,8117,329 Hewes St,Brooklyn,"Entity[""City"", {""Brooklyn"", ""Ohio"", ""UnitedStates""}]","Entity[""AdministrativeDivision"", {""NewYork"", ""UnitedStates""}]","Entity[""ZIPCode"", ""11211""]","Missing[""NotAvailable""]",OK,3.60E+14,"GeoPosition[{40.706537, -73.953176}]"
UPS Drop Box,Self Serve Drop Box,7854,86 Nroman Ave,Brooklyn,"Entity[""City"", {""Brooklyn"", ""Ohio"", ""UnitedStates""}]","Entity[""AdministrativeDivision"", {""NewYork"", ""UnitedStates""}]","Entity[""ZIPCode"", ""11222""]",212-375-8292,OK,3.60E+14,"GeoPosition[{40.725376, -73.951799}]"
The UPS Store,"Missing[""NotAvailable""]",7902,144 N 7th St,Brooklyn,"Entity[""City"", {""Brooklyn"", ""Ohio"", ""UnitedStates""}]","Entity[""AdministrativeDivision"", {""NewYork"", ""UnitedStates""}]","Entity[""ZIPCode"", ""11211""]",718-218-6440,OK,3.60E+14,"GeoPosition[{40.718261, -73.958468}]"
Authorized Shipping Outlet,United Shipping Agency Inc,8010,16 Ct St,Brooklyn,"Entity[""City"", {""Brooklyn"", ""Ohio"", ""UnitedStates""}]","Entity[""AdministrativeDivision"", {""NewYork"", ""UnitedStates""}]","Entity[""ZIPCode"", ""11201""]",718-222-8888,OK,3.60E+14,"GeoPosition[{40.693356, -73.990625}]"
UPS Drop Box,Bklyn Navy Yd Bldg 3,8012,27 Brooklyn Navy Yard,Brooklyn,"Entity[""City"", {""Brooklyn"", ""Ohio"", ""UnitedStates""}]","Entity[""AdministrativeDivision"", {""NewYork"", ""UnitedStates""}]","Entity[""ZIPCode"", ""11205""]",718-218-6440,OK,3.60E+14,"GeoPosition[{40.699929, -73.963801}]"
UPS Drop Box,Self Serve Drop Box,8013,175 Broadway,Brooklyn,"Entity[""City"", {""Brooklyn"", ""Ohio"", ""UnitedStates""}]","Entity[""AdministrativeDivision"", {""NewYork"", ""UnitedStates""}]","Entity[""ZIPCode"", ""11211""]",718-218-6440,OK,3.60E+14,"GeoPosition[{40.710027, -73.962544}]"
UPS Drop Box,Angelo Costa,8014,200 Willoughby Ave,Brooklyn,"Entity[""City"", {""Brooklyn"", ""Ohio"", ""UnitedStates""}]","Entity[""AdministrativeDivision"", {""NewYork"", ""UnitedStates""}]","Entity[""ZIPCode"", ""11205""]",718-218-6440,OK,3.60E+14,"GeoPosition[{40.692036, -73.963918}]"
UPS Drop Box,Self Serve Drop Box,8042,4207 Ave M,Brooklyn,"Entity[""City"", {""Brooklyn"", ""Ohio"", ""UnitedStates""}]","Entity[""AdministrativeDivision"", {""NewYork"", ""UnitedStates""}]","Entity[""ZIPCode"", ""11234""]",800-742-5877,OK,3.60E+14,"GeoPosition[{40.620926, -73.934423}]"
UPS Drop Box,Self Serve Drop Box,8033,1556 Flatbush Ave,Brooklyn,"Entity[""City"", {""Brooklyn"", ""Ohio"", ""UnitedStates""}]","Entity[""AdministrativeDivision"", {""NewYork"", ""UnitedStates""}]","Entity[""ZIPCode"", ""11210""]",718-701-5294,OK,3.60E+14,"GeoPosition[{40.633041, -73.947922}]"
UPS Customer Center,Staffed Location,8040,10401 Foster Ave,Brooklyn,"Entity[""City"", {""Brooklyn"", ""Ohio"", ""UnitedStates""}]","Entity[""AdministrativeDivision"", {""NewYork"", ""UnitedStates""}]","Entity[""ZIPCode"", ""11230""]",800-742-5877,OK,3.60E+14,"GeoPosition[{40.627612, -73.97657}]"
UPS Drop Box,Self Serve Drop Box,8041,3023 Ave J,Brooklyn,"Entity[""City"", {""Brooklyn"", ""Ohio"", ""UnitedStates""}]","Entity[""AdministrativeDivision"", {""NewYork"", ""UnitedStates""}]","Entity[""ZIPCode"", ""11210""]",800-742-5877,OK,3.60E+14,"GeoPosition[{40.626832, -73.9466}]"
UPS Drop Box,Self-Serve Drop Box,8043,5122 Ave N,Brooklyn,"Entity[""City"", {""Brooklyn"", ""Ohio"", ""UnitedStates""}]","Entity[""AdministrativeDivision"", {""NewYork"", ""UnitedStates""}]","Entity[""ZIPCode"", ""11234""]",800-742-5877,OK,3.60E+14,"GeoPosition[{40.618996, -73.925611}]"
UPS Drop Box,Hampshire Properties,8044,992 E 15th St,Brooklyn,"Entity[""City"", {""Brooklyn"", ""Ohio"", ""UnitedStates""}]","Entity[""AdministrativeDivision"", {""NewYork"", ""UnitedStates""}]","Entity[""ZIPCode"", ""11230""]",800-742-5877,OK,3.60E+14,"GeoPosition[{40.625528, -73.961512}]"
UPS Drop Box,Falchi Bldg 11,8051,2182 Flatbush Ave,Brooklyn,"Entity[""City"", {""Brooklyn"", ""Ohio"", ""UnitedStates""}]","Entity[""AdministrativeDivision"", {""NewYork"", ""UnitedStates""}]","Entity[""ZIPCode"", ""11234""]",800-742-5877,OK,3.60E+14,"GeoPosition[{40.616718, -73.93043}]"
UPS Drop Box,Self-Serve Drop Box,8052,1507 Ave M,Brooklyn,"Entity[""City"", {""Brooklyn"", ""Ohio"", ""UnitedStates""}]","Entity[""AdministrativeDivision"", {""NewYork"", ""UnitedStates""}]","Entity[""ZIPCode"", ""11230""]",800-742-5877,OK,3.60E+14,"GeoPosition[{40.61805, -73.959853}]"
UPS Drop Box,Self-Serve Drop Box,8053,3102 Quentin Rd,Brooklyn,"Entity[""City"", {""Brooklyn"", ""Ohio"", ""UnitedStates""}]","Entity[""AdministrativeDivision"", {""NewYork"", ""UnitedStates""}]","Entity[""ZIPCode"", ""11234""]",800-742-5877,OK,3.60E+14,"GeoPosition[{40.612334, -73.940285}]"
UPS Drop Box,Self Serve Drop Box,8054,1222 Ave M,Brooklyn,"Entity[""City"", {""Brooklyn"", ""Ohio"", ""UnitedStates""}]","Entity[""AdministrativeDivision"", {""NewYork"", ""UnitedStates""}]","Entity[""ZIPCode"", ""11230""]",800-742-5877,OK,3.60E+14,"GeoPosition[{40.617725, -73.96227}]"
UPS Drop Box,Self Serve Drop Box,8055,323 9th St,Brooklyn,"Entity[""City"", {""Brooklyn"", ""Ohio"", ""UnitedStates""}]","Entity[""AdministrativeDivision"", {""NewYork"", ""UnitedStates""}]","Entity[""ZIPCode"", ""11215""]",800-742-5877,OK,3.60E+14,"GeoPosition[{40.668886, -73.985634}]"
UPS Drop Box,Liberty Travel,8056,1301 Kings Hwy,Brooklyn,"Entity[""City"", {""Brooklyn"", ""Ohio"", ""UnitedStates""}]","Entity[""AdministrativeDivision"", {""NewYork"", ""UnitedStates""}]","Entity[""ZIPCode"", ""11229""]",800-742-5877,OK,3.60E+14,"GeoPosition[{40.608094, -73.959968}]"
UPS Drop Box,Reliable,8057,1312 44th St,Brooklyn,"Entity[""City"", {""Brooklyn"", ""Ohio"", ""UnitedStates""}]","Entity[""AdministrativeDivision"", {""NewYork"", ""UnitedStates""}]","Entity[""ZIPCode"", ""11219""]",800-742-5877,OK,3.60E+14,"GeoPosition[{40.63753, -73.988792}]"
UPS Drop Box,Checks In The Mail,8058,5014 16th Ave,Brooklyn,"Entity[""City"", {""Brooklyn"", ""Ohio"", ""UnitedStates""}]","Entity[""AdministrativeDivision"", {""NewYork"", ""UnitedStates""}]","Entity[""ZIPCode"", ""11204""]",800-742-5877,OK,3.60E+14,"GeoPosition[{40.63037, -73.986246}]"
UPS Drop Box,Wedyger,8061,1301 47th St,Brooklyn,"Entity[""City"", {""Brooklyn"", ""Ohio"", ""UnitedStates""}]","Entity[""AdministrativeDivision"", {""NewYork"", ""UnitedStates""}]","Entity[""ZIPCode"", ""11219""]",800-742-5877,OK,3.60E+14,"GeoPosition[{40.636031, -73.990713}]"
UPS Drop Box,Self Serve Drop Box,8062,186 21st St,Brooklyn,"Entity[""City"", {""Brooklyn"", ""Ohio"", ""UnitedStates""}]","Entity[""AdministrativeDivision"", {""NewYork"", ""UnitedStates""}]","Entity[""ZIPCode"", ""11232""]",800-742-5877,OK,3.60E+14,"GeoPosition[{40.662432, -73.99532}]"
UPS Drop Box,Park Ave Bldg,8063,544 Park Ave,Brooklyn,"Entity[""City"", {""Brooklyn"", ""Ohio"", ""UnitedStates""}]","Entity[""AdministrativeDivision"", {""NewYork"", ""UnitedStates""}]","Entity[""ZIPCode"", ""11205""]",800-742-5877,OK,3.60E+14,"GeoPosition[{40.697077, -73.953755}]"
UPS Drop Box,Self Serve Drop Box,8064,225 25th St,Brooklyn,"Entity[""City"", {""Brooklyn"", ""Ohio"", ""UnitedStates""}]","Entity[""AdministrativeDivision"", {""NewYork"", ""UnitedStates""}]","Entity[""ZIPCode"", ""11232""]",800-742-5877,OK,3.60E+14,"GeoPosition[{40.660261, -73.997595}]"
Authorized Shipping Outlet,Fast Mail Stations,8079,7816 New Utrecht Ave,Brooklyn,"Entity[""City"", {""Brooklyn"", ""Ohio"", ""UnitedStates""}]","Entity[""AdministrativeDivision"", {""NewYork"", ""UnitedStates""}]","Entity[""ZIPCode"", ""11214""]",718-621-1363,OK,3.60E+14,"GeoPosition[{40.613222, -74.000718}]"
Authorized Shipping Outlet,Pc Shipping Solutions,8080,1342 65th St,Brooklyn,"Entity[""City"", {""Brooklyn"", ""Ohio"", ""UnitedStates""}]","Entity[""AdministrativeDivision"", {""NewYork"", ""UnitedStates""}]","Entity[""ZIPCode"", ""11219""]",718-236-6525,OK,3.60E+14,"GeoPosition[{40.625367, -74.000569}]"
Authorized Shipping Outlet,E-Z Shipping,8081,1080 McDonald Ave,Brooklyn,"Entity[""City"", {""Brooklyn"", ""Ohio"", ""UnitedStates""}]","Entity[""AdministrativeDivision"", {""NewYork"", ""UnitedStates""}]","Entity[""ZIPCode"", ""11230""]",718-951-3920,OK,3.60E+14,"GeoPosition[{40.6269, -73.976468}]"
The UPS Store,"Missing[""NotAvailable""]",8082,1421 Sheepshead Bay Rd,Brooklyn,"Entity[""City"", {""Brooklyn"", ""Ohio"", ""UnitedStates""}]","Entity[""AdministrativeDivision"", {""NewYork"", ""UnitedStates""}]","Entity[""ZIPCode"", ""11235""]",718-332-3158,OK,3.60E+14,"GeoPosition[{40.587642, -73.954967}]"
UPS Drop Box,Lipsco Ltd,8083,5022 New Utrecht Ave,Brooklyn,"Entity[""City"", {""Brooklyn"", ""Ohio"", ""UnitedStates""}]","Entity[""AdministrativeDivision"", {""NewYork"", ""UnitedStates""}]","Entity[""ZIPCode"", ""11219""]",718-701-5294,OK,3.60E+14,"GeoPosition[{40.635517, -73.994919}]"
Authorized Shipping Outlet,Parcel Plus Store Number241,8126,402 Graham Ave,Brooklyn,"Entity[""City"", {""Brooklyn"", ""Ohio"", ""UnitedStates""}]","Entity[""AdministrativeDivision"", {""NewYork"", ""UnitedStates""}]","Entity[""ZIPCode"", ""11211""]",718-392-2212,OK,3.60E+14,"GeoPosition[{40.716799, -73.944718}]"
UPS Drop Box,Self Serve Drop Box,8181,5916 18th Ave,Brooklyn,"Entity[""City"", {""Brooklyn"", ""Ohio"", ""UnitedStates""}]","Entity[""AdministrativeDivision"", {""NewYork"", ""UnitedStates""}]","Entity[""ZIPCode"", ""11204""]",718-701-5294,OK,3.60E+14,"GeoPosition[{40.62249, -73.986838}]"
UPS Alliance Location,Staples Aso 01231,8198,1760 Utica Ave,Brooklyn,"Entity[""City"", {""Brooklyn"", ""Ohio"", ""UnitedStates""}]","Entity[""AdministrativeDivision"", {""NewYork"", ""UnitedStates""}]","Entity[""ZIPCode"", ""11234""]",718-763-5733,OK,3.60E+14,"GeoPosition[{40.629374, -73.928031}]"
Authorized Shipping Outlet,Russ Printing,8199,3303 Ave N,Brooklyn,"Entity[""City"", {""Brooklyn"", ""Ohio"", ""UnitedStates""}]","Entity[""AdministrativeDivision"", {""NewYork"", ""UnitedStates""}]","Entity[""ZIPCode"", ""11234""]",718-259-6655,OK,3.60E+14,"GeoPosition[{40.61756, -73.942145}]"
Authorized Shipping Outlet,Worldwide Shipping,8200,2071 Flatbush Ave,Brooklyn,"Entity[""City"", {""Brooklyn"", ""Ohio"", ""UnitedStates""}]","Entity[""AdministrativeDivision"", {""NewYork"", ""UnitedStates""}]","Entity[""ZIPCode"", ""11234""]",718-338-7873,OK,3.60E+14,"GeoPosition[{40.619385, -73.933311}]"
Authorized Shipping Outlet,Triborough Business Products,8201,3602 Quentin Rd,Brooklyn,"Entity[""City"", {""Brooklyn"", ""Ohio"", ""UnitedStates""}]","Entity[""AdministrativeDivision"", {""NewYork"", ""UnitedStates""}]","Entity[""ZIPCode"", ""11234""]",718-627-6076,OK,3.60E+14,"GeoPosition[{40.614655, -73.936698}]"
Authorized Shipping Outlet,Tiger Lily,8206,442 D Lorimer St,Brooklyn,"Entity[""City"", {""Brooklyn"", ""Ohio"", ""UnitedStates""}]","Entity[""AdministrativeDivision"", {""NewYork"", ""UnitedStates""}]","Entity[""ZIPCode"", ""11206""]",718-599-5700,Zip Centroid,3.60E+14,"GeoPosition[{40.702739, -73.945409}]"
Authorized Shipping Outlet,Robust,8210,248 Graham Ave,Brooklyn,"Entity[""City"", {""Brooklyn"", ""Ohio"", ""UnitedStates""}]","Entity[""AdministrativeDivision"", {""NewYork"", ""UnitedStates""}]","Entity[""ZIPCode"", ""11206""]",718-384-3895,OK,3.60E+14,"GeoPosition[{40.710657, -73.943708}]"
Authorized Shipping Outlet,P&p Shipping and Handling,8211,790 Manhattan Ave,Brooklyn,"Entity[""City"", {""Brooklyn"", ""Ohio"", ""UnitedStates""}]","Entity[""AdministrativeDivision"", {""NewYork"", ""UnitedStates""}]","Entity[""ZIPCode"", ""11222""]",718-389-2823,OK,3.60E+14,"GeoPosition[{40.727581, -73.952913}]"
Authorized Shipping Outlet,Moving & Direct Transport Inc,8221,793 Utica Ave,Brooklyn,"Entity[""City"", {""Brooklyn"", ""Ohio"", ""UnitedStates""}]","Entity[""AdministrativeDivision"", {""NewYork"", ""UnitedStates""}]","Entity[""ZIPCode"", ""11203""]",718-221-4688,OK,3.60E+14,"GeoPosition[{40.653819, -73.930553}]"
Authorized Shipping Outlet,Virtual Imaging,8237,476 Albany Ave,Brooklyn,"Entity[""City"", {""Brooklyn"", ""Ohio"", ""UnitedStates""}]","Entity[""AdministrativeDivision"", {""NewYork"", ""UnitedStates""}]","Entity[""ZIPCode"", ""11203""]",718-735-7448,OK,3.60E+14,"GeoPosition[{40.663646, -73.939981}]"
Authorized Shipping Outlet,Mailzone,8247,2003 Stillwell Ave,Brooklyn,"Entity[""City"", {""Brooklyn"", ""Ohio"", ""UnitedStates""}]","Entity[""AdministrativeDivision"", {""NewYork"", ""UnitedStates""}]","Entity[""ZIPCode"", ""11223""]",718-373-7447,OK,3.60E+14,"GeoPosition[{40.597852, -73.985426}]"
Authorized Shipping Outlet,Mail Boxes Of Park Slope,8259,328 Flatbush Ave,Brooklyn,"Entity[""City"", {""Brooklyn"", ""Ohio"", ""UnitedStates""}]","Entity[""AdministrativeDivision"", {""NewYork"", ""UnitedStates""}]","Entity[""ZIPCode"", ""11238""]",718-857-5858,OK,3.60E+14,"GeoPosition[{40.67672, -73.972165}]"
Authorized Shipping Outlet,Packaging Source Etc Llc,8274,257 Nostrand Ave,Brooklyn,"Entity[""City"", {""Brooklyn"", ""Ohio"", ""UnitedStates""}]","Entity[""AdministrativeDivision"", {""NewYork"", ""UnitedStates""}]","Entity[""ZIPCode"", ""11205""]",718-398-7312,OK,3.60E+14,"GeoPosition[{40.690012, -73.95146}]"
UPS Alliance Location,Staples Aso 00957,8303,348 4th Ave,Brooklyn,"Entity[""City"", {""Brooklyn"", ""Ohio"", ""UnitedStates""}]","Entity[""AdministrativeDivision"", {""NewYork"", ""UnitedStates""}]","Entity[""ZIPCode"", ""11215""]",718-222-5732,OK,3.60E+14,"GeoPosition[{40.673693, -73.986058}]"
Authorized Shipping Outlet,Active Transport Services Inc,8304,285 5th Ave,Brooklyn,"Entity[""City"", {""Brooklyn"", ""Ohio"", ""UnitedStates""}]","Entity[""AdministrativeDivision"", {""NewYork"", ""UnitedStates""}]","Entity[""ZIPCode"", ""11215""]",718-965-1300,OK,3.60E+14,"GeoPosition[{40.673765, -73.982421}]"
Authorized Shipping Outlet,Park Slope Copy Center,8305,123 Seventh Ave,Brooklyn,"Entity[""City"", {""Brooklyn"", ""Ohio"", ""UnitedStates""}]","Entity[""AdministrativeDivision"", {""NewYork"", ""UnitedStates""}]","Entity[""ZIPCode"", ""11215""]",718-783-0268,OK,3.60E+14,"GeoPosition[{40.673316, -73.976183}]"
Authorized Shipping Outlet,Shippers Express,8306,41 Schemerhorn St,Brooklyn,"Entity[""City"", {""Brooklyn"", ""Ohio"", ""UnitedStates""}]","Entity[""AdministrativeDivision"", {""NewYork"", ""UnitedStates""}]","Entity[""ZIPCode"", ""11201""]",718-858-6969,OK,3.60E+14,"GeoPosition[{40.69113, -73.992136}]"
UPS Alliance Location,Staples Aso 00755,8314,1011 Flatbush Ave,Brooklyn,"Entity[""City"", {""Brooklyn"", ""Ohio"", ""UnitedStates""}]","Entity[""AdministrativeDivision"", {""NewYork"", ""UnitedStates""}]","Entity[""ZIPCode"", ""11226""]",718-703-0979,OK,3.60E+14,"GeoPosition[{40.646598, -73.958068}]"
Authorized Shipping Outlet,Supreme Shipping,8315,921 Coney Island Ave,Brooklyn,"Entity[""City"", {""Brooklyn"", ""Ohio"", ""UnitedStates""}]","Entity[""AdministrativeDivision"", {""NewYork"", ""UnitedStates""}]","Entity[""ZIPCode"", ""11230""]",718-282-2113,OK,3.60E+14,"GeoPosition[{40.634865, -73.967405}]"
Authorized Shipping Outlet,Talk About Shipping,8316,4403 15th Ave,Brooklyn,"Entity[""City"", {""Brooklyn"", ""Ohio"", ""UnitedStates""}]","Entity[""AdministrativeDivision"", {""NewYork"", ""UnitedStates""}]","Entity[""ZIPCode"", ""11219""]",718-633-5401,OK,3.60E+14,"GeoPosition[{40.635098, -73.984799}]"
Authorized Shipping Outlet,Audiorex,8317,944 Flatbush Ave,Brooklyn,"Entity[""City"", {""Brooklyn"", ""Ohio"", ""UnitedStates""}]","Entity[""AdministrativeDivision"", {""NewYork"", ""UnitedStates""}]","Entity[""ZIPCode"", ""11226""]",718-941-0022,OK,3.60E+14,"GeoPosition[{40.648445, -73.958274}]"
Authorized Shipping Outlet,Check In The Mail Inc,8352,5014 16 Ave,Brooklyn,"Entity[""City"", {""Brooklyn"", ""Ohio"", ""UnitedStates""}]","Entity[""AdministrativeDivision"", {""NewYork"", ""UnitedStates""}]","Entity[""ZIPCode"", ""11204""]",718-436-6245,OK,3.60E+14,"GeoPosition[{40.63037, -73.986246}]"
Authorized Shipping Outlet,Americomp Technology,8353,5202 8th Ave,Brooklyn,"Entity[""City"", {""Brooklyn"", ""Ohio"", ""UnitedStates""}]","Entity[""AdministrativeDivision"", {""NewYork"", ""UnitedStates""}]","Entity[""ZIPCode"", ""11220""]",718-431-1867,OK,3.60E+14,"GeoPosition[{40.639948, -74.004963}]"
Authorized Shipping Outlet,World Shipping Inc,8354,4411 8th Ave,Brooklyn,"Entity[""City"", {""Brooklyn"", ""Ohio"", ""UnitedStates""}]","Entity[""AdministrativeDivision"", {""NewYork"", ""UnitedStates""}]","Entity[""ZIPCode"", ""11220""]",718-686-8629,OK,3.60E+14,"GeoPosition[{40.644353, -74.000278}]"
Authorized Shipping Outlet,Pasternacks True Value&shippng,8355,5506 18th Ave,Brooklyn,"Entity[""City"", {""Brooklyn"", ""Ohio"", ""UnitedStates""}]","Entity[""AdministrativeDivision"", {""NewYork"", ""UnitedStates""}]","Entity[""ZIPCode"", ""11204""]",718-232-3900,OK,3.60E+14,"GeoPosition[{40.624845, -73.984495}]"
Authorized Shipping Outlet,A Little Bit Of Something Inc,8356,4416 18th Ave,Brooklyn,"Entity[""City"", {""Brooklyn"", ""Ohio"", ""UnitedStates""}]","Entity[""AdministrativeDivision"", {""NewYork"", ""UnitedStates""}]","Entity[""ZIPCode"", ""11204""]",718-438-7222,OK,3.60E+14,"GeoPosition[{40.630757, -73.97721}]"
Authorized Shipping Outlet,Shiprite,8584,7304 5th Ave,Brooklyn,"Entity[""City"", {""Brooklyn"", ""Ohio"", ""UnitedStates""}]","Entity[""AdministrativeDivision"", {""NewYork"", ""UnitedStates""}]","Entity[""ZIPCode"", ""11209""]",718-630-5655,OK,3.60E+14,"GeoPosition[{40.630916, -74.022107}]"
Authorized Shipping Outlet,Mail Drop,8623,1204 Ave U,Brooklyn,"Entity[""City"", {""Brooklyn"", ""Ohio"", ""UnitedStates""}]","Entity[""AdministrativeDivision"", {""NewYork"", ""UnitedStates""}]","Entity[""ZIPCode"", ""11229""]",718-339-0006,OK,3.60E+14,"GeoPosition[{40.598408, -73.959947}]"
Authorized Shipping Outlet,Anc Shipping Plus,8624,8612 25th Ave,Brooklyn,"Entity[""City"", {""Brooklyn"", ""Ohio"", ""UnitedStates""}]","Entity[""AdministrativeDivision"", {""NewYork"", ""UnitedStates""}]","Entity[""ZIPCode"", ""11214""]",718-256-8522,OK,"Missing[""NotAvailable""]","GeoPosition[{40.597547, -73.987614}]"
Authorized Shipping Outlet,Rex Parcels,8625,2109 E 14th St,Brooklyn,"Entity[""City"", {""Brooklyn"", ""Ohio"", ""UnitedStates""}]","Entity[""AdministrativeDivision"", {""NewYork"", ""UnitedStates""}]","Entity[""ZIPCode"", ""11229""]",718-301-6353,OK,3.60E+14,"GeoPosition[{40.598391, -73.957213}]"
UPS Drop Box,Self Serve Drop Box,4386,25 Washington St,Brooklyn,"Entity[""City"", {""Brooklyn"", ""Ohio"", ""UnitedStates""}]","Entity[""AdministrativeDivision"", {""NewYork"", ""UnitedStates""}]","Entity[""ZIPCode"", ""11201""]","Missing[""NotAvailable""]",OK,3.60E+14,"GeoPosition[{40.703688, -73.989497}]"
Authorized Shipping Outlet,I Air Parcel,8626,2754 Coney Island Ave,Brooklyn,"Entity[""City"", {""Brooklyn"", ""Ohio"", ""UnitedStates""}]","Entity[""AdministrativeDivision"", {""NewYork"", ""UnitedStates""}]","Entity[""ZIPCode"", ""11235""]",718-368-0366,OK,3.60E+14,"GeoPosition[{40.589356, -73.960619}]"
Authorized Shipping Outlet,Post Mark-It,8652,383 Kingston Ave,Brooklyn,"Entity[""City"", {""Brooklyn"", ""Ohio"", ""UnitedStates""}]","Entity[""AdministrativeDivision"", {""NewYork"", ""UnitedStates""}]","Entity[""ZIPCode"", ""11213""]",718-774-1990,OK,3.60E+14,"GeoPosition[{40.665873, -73.942494}]"
Authorized Shipping Outlet,Ludwig Drug Store & Shipping,8653,805 Washington Ave,Brooklyn,"Entity[""City"", {""Brooklyn"", ""Ohio"", ""UnitedStates""}]","Entity[""AdministrativeDivision"", {""NewYork"", ""UnitedStates""}]","Entity[""ZIPCode"", ""11238""]",718-636-5655,OK,3.60E+14,"GeoPosition[{40.672063, -73.962612}]"
Authorized Shipping Outlet,Mayday Hardware Supply,8654,755 Washington Ave,Brooklyn,"Entity[""City"", {""Brooklyn"", ""Ohio"", ""UnitedStates""}]","Entity[""AdministrativeDivision"", {""NewYork"", ""UnitedStates""}]","Entity[""ZIPCode"", ""11238""]",718-783-7171,OK,3.60E+14,"GeoPosition[{40.674194, -73.963024}]"
UPS Alliance Location,Staples Aso 00188,8716,2892 Ocean Ave,Brooklyn,"Entity[""City"", {""Brooklyn"", ""Ohio"", ""UnitedStates""}]","Entity[""AdministrativeDivision"", {""NewYork"", ""UnitedStates""}]","Entity[""ZIPCode"", ""11235""]",718-743-8238,OK,3.60E+14,"GeoPosition[{40.590922, -73.949841}]"
Authorized Shipping Outlet,Electrocell Inc,8721,1973 60th St,Brooklyn,"Entity[""City"", {""Brooklyn"", ""Ohio"", ""UnitedStates""}]","Entity[""AdministrativeDivision"", {""NewYork"", ""UnitedStates""}]","Entity[""ZIPCode"", ""11204""]",718-621-6478,OK,3.60E+14,"GeoPosition[{40.61982, -73.983547}]"
UPS Alliance Location,Staples Aso 01232,8751,1850-1878 Coney Island Ave,Brooklyn,"Entity[""City"", {""Brooklyn"", ""Ohio"", ""UnitedStates""}]","Entity[""AdministrativeDivision"", {""NewYork"", ""UnitedStates""}]","Entity[""ZIPCode"", ""11230""]",718-376-8336,OK,3.60E+14,"GeoPosition[{40.611491, -73.962756}]"
Authorized Shipping Outlet,Best Mail & Copy Center Inc,8756,2920 Ave R,Brooklyn,"Entity[""City"", {""Brooklyn"", ""Ohio"", ""UnitedStates""}]","Entity[""AdministrativeDivision"", {""NewYork"", ""UnitedStates""}]","Entity[""ZIPCode"", ""11229""]",718-339-6689,OK,3.60E+14,"GeoPosition[{40.607331, -73.943487}]"
Authorized Shipping Outlet,Mailboxes Of Brooklyn,8757,2167 E 21st St,Brooklyn,"Entity[""City"", {""Brooklyn"", ""Ohio"", ""UnitedStates""}]","Entity[""AdministrativeDivision"", {""NewYork"", ""UnitedStates""}]","Entity[""ZIPCode"", ""11229""]",718-769-5879,OK,3.60E+14,"GeoPosition[{40.599886, -73.950408}]"
Authorized Shipping Outlet,Kawral Business Center,8812,1182 Fulton St,Brooklyn,"Entity[""City"", {""Brooklyn"", ""Ohio"", ""UnitedStates""}]","Entity[""AdministrativeDivision"", {""NewYork"", ""UnitedStates""}]","Entity[""ZIPCode"", ""11216""]",718-399-6888,OK,3.60E+14,"GeoPosition[{40.680664, -73.953633}]"
Authorized Shipping Outlet,Only Connect,8813,1186 Fulton St,Brooklyn,"Entity[""City"", {""Brooklyn"", ""Ohio"", ""UnitedStates""}]","Entity[""AdministrativeDivision"", {""NewYork"", ""UnitedStates""}]","Entity[""ZIPCode"", ""11216""]",718-789-1007,OK,3.60E+14,"GeoPosition[{40.680632, -73.953483}]"
Authorized Shipping Outlet,Park Slope Moving,8830,43 5th Ave,Brooklyn,"Entity[""City"", {""Brooklyn"", ""Ohio"", ""UnitedStates""}]","Entity[""AdministrativeDivision"", {""NewYork"", ""UnitedStates""}]","Entity[""ZIPCode"", ""11217""]",718-230-4000,OK,3.60E+14,"GeoPosition[{40.681598, -73.9769}]"
Authorized Shipping Outlet,Postal Connections,8867,446 Myrtle Ave,Brooklyn,"Entity[""City"", {""Brooklyn"", ""Ohio"", ""UnitedStates""}]","Entity[""AdministrativeDivision"", {""NewYork"", ""UnitedStates""}]","Entity[""ZIPCode"", ""11205""]",718-625-9140,OK,3.60E+14,"GeoPosition[{40.693232, -73.967583}]"
Authorized Shipping Outlet,Go Express,8868,241 C Bedford Ave,Brooklyn,"Entity[""City"", {""Brooklyn"", ""Ohio"", ""UnitedStates""}]","Entity[""AdministrativeDivision"", {""NewYork"", ""UnitedStates""}]","Entity[""ZIPCode"", ""11211""]",718-218-6624,Zip Centroid,3.60E+14,"GeoPosition[{40.710093, -73.955889}]"
The UPS Store,"Missing[""NotAvailable""]",4452,93 Montague St,Brooklyn,"Entity[""City"", {""Brooklyn"", ""Ohio"", ""UnitedStates""}]","Entity[""AdministrativeDivision"", {""NewYork"", ""UnitedStates""}]","Entity[""ZIPCode"", ""11201""]",718-802-0900,OK,3.60E+14,"GeoPosition[{40.695167, -73.995555}]"
The UPS Store,"Missing[""NotAvailable""]",4454,320 7th Ave,Brooklyn,"Entity[""City"", {""Brooklyn"", ""Ohio"", ""UnitedStates""}]","Entity[""AdministrativeDivision"", {""NewYork"", ""UnitedStates""}]","Entity[""ZIPCode"", ""11215""]",718-499-0464,OK,3.60E+14,"GeoPosition[{40.667265, -73.981305}]"
The UPS Store,"Missing[""NotAvailable""]",4455,315 Flatbush Ave,Brooklyn,"Entity[""City"", {""Brooklyn"", ""Ohio"", ""UnitedStates""}]","Entity[""AdministrativeDivision"", {""NewYork"", ""UnitedStates""}]","Entity[""ZIPCode"", ""11217""]",718-701-5294,OK,3.60E+14,"GeoPosition[{40.678301, -73.973214}]"
UPS Drop Box,Atrium Enterprises,4457,499 Van Brunt St,Brooklyn,"Entity[""City"", {""Brooklyn"", ""Ohio"", ""UnitedStates""}]","Entity[""AdministrativeDivision"", {""NewYork"", ""UnitedStates""}]","Entity[""ZIPCode"", ""11231""]",212-625-0080,OK,3.60E+14,"GeoPosition[{40.673828, -74.016951}]"
UPS Drop Box,Self Serve Drop Box,4459,360 Ct St,Brooklyn,"Entity[""City"", {""Brooklyn"", ""Ohio"", ""UnitedStates""}]","Entity[""AdministrativeDivision"", {""NewYork"", ""UnitedStates""}]","Entity[""ZIPCode"", ""11231""]","Missing[""NotAvailable""]",OK,3.60E+14,"GeoPosition[{40.681976, -73.996129}]"
UPS Drop Box,Chanin Bldg,4464,105 Ct St,Brooklyn,"Entity[""City"", {""Brooklyn"", ""Ohio"", ""UnitedStates""}]","Entity[""AdministrativeDivision"", {""NewYork"", ""UnitedStates""}]","Entity[""ZIPCode"", ""11201""]","Missing[""NotAvailable""]",OK,3.60E+14,"GeoPosition[{40.690825, -73.991776}]"
UPS Drop Box,Self-Serve Drop Box,4467,26 Ct St,Brooklyn,"Entity[""City"", {""Brooklyn"", ""Ohio"", ""UnitedStates""}]","Entity[""AdministrativeDivision"", {""NewYork"", ""UnitedStates""}]","Entity[""ZIPCode"", ""11201""]","Missing[""NotAvailable""]",OK,3.60E+14,"GeoPosition[{40.693182, -73.990706}]"
UPS Drop Box,Self Serve Drop Box,4470,6 Metrotech,Brooklyn,"Entity[""City"", {""Brooklyn"", ""Ohio"", ""UnitedStates""}]","Entity[""AdministrativeDivision"", {""NewYork"", ""UnitedStates""}]","Entity[""ZIPCode"", ""11201""]","Missing[""NotAvailable""]",OK,3.60E+14,"GeoPosition[{40.694323, -73.98568}]"
UPS Drop Box,Jp Morgan,4471,4 Metro Tech Ctr,Brooklyn,"Entity[""City"", {""Brooklyn"", ""Ohio"", ""UnitedStates""}]","Entity[""AdministrativeDivision"", {""NewYork"", ""UnitedStates""}]","Entity[""ZIPCode"", ""11201""]","Missing[""NotAvailable""]",OK,3.60E+14,"GeoPosition[{40.694323, -73.98568}]"
UPS Drop Box,Jp Morgan -,4472,3 Metrotech Ctr,Brooklyn,"Entity[""City"", {""Brooklyn"", ""Ohio"", ""UnitedStates""}]","Entity[""AdministrativeDivision"", {""NewYork"", ""UnitedStates""}]","Entity[""ZIPCode"", ""11245""]","Missing[""NotAvailable""]",Zip Centroid,3.60E+14,"GeoPosition[{40.694294, -73.988169}]"
UPS Drop Box,Dumbo,4473,45 Main St,Brooklyn,"Entity[""City"", {""Brooklyn"", ""Ohio"", ""UnitedStates""}]","Entity[""AdministrativeDivision"", {""NewYork"", ""UnitedStates""}]","Entity[""ZIPCode"", ""11201""]","Missing[""NotAvailable""]",OK,3.60E+14,"GeoPosition[{40.702819, -73.990641}]"
The UPS Store,"Missing[""NotAvailable""]",8032,2152 Ralph Ave,Brooklyn,"Entity[""City"", {""Brooklyn"", ""Ohio"", ""UnitedStates""}]","Entity[""AdministrativeDivision"", {""NewYork"", ""UnitedStates""}]","Entity[""ZIPCode"", ""11234""]",718-444-0092,OK,3.60E+14,"GeoPosition[{40.62529, -73.917904}]"
UPS Drop Box,Self Serve Drop Box,8038,5929 Flatlands Ave,Brooklyn,"Entity[""City"", {""Brooklyn"", ""Ohio"", ""UnitedStates""}]","Entity[""AdministrativeDivision"", {""NewYork"", ""UnitedStates""}]","Entity[""ZIPCode"", ""11234""]",718-701-5294,OK,3.60E+14,"GeoPosition[{40.631674, -73.919258}]"
UPS Drop Box,Self-Serve Drop Box,8039,10401 Foster Ave,Brooklyn,"Entity[""City"", {""Brooklyn"", ""Ohio"", ""UnitedStates""}]","Entity[""AdministrativeDivision"", {""NewYork"", ""UnitedStates""}]","Entity[""ZIPCode"", ""11236""]",718-701-5294,OK,3.60E+14,"GeoPosition[{40.65158, -73.900717}]"
UPS Drop Box,Self Serve Drop Box,8045,2381 Ralph Ave,Brooklyn,"Entity[""City"", {""Brooklyn"", ""Ohio"", ""UnitedStates""}]","Entity[""AdministrativeDivision"", {""NewYork"", ""UnitedStates""}]","Entity[""ZIPCode"", ""11234""]",800-742-5877,OK,3.60E+14,"GeoPosition[{40.620068, -73.917266}]"